PROBA-1                 
1 26958U 01049B   15355.52537442  .00000884  00000-0  82844-4 0  9995
2 26958  97.4928 333.3879 0074417 352.4851   7.5248 14.94479263770300
BIRD 2                  
1 26959U 01049C   15355.48840032  .00010210  00000-0  34380-3 0  9998
2 26959  97.7610 264.4662 0011556 135.6991 224.5176 15.30913136783035
CUTE-1 (CO-55)          
1 27844U 03031E   15355.01732712  .00000244  00000-0  13061-3 0  9998
2 27844  98.6943   0.8755 0010626 118.3187 241.9064 14.21890435646981
CUBESAT XI-IV (CO-57)   
1 27848U 03031J   15355.01377833  .00000202  00000-0  11212-3 0  9991
2 27848  98.7041   0.8753 0010471 125.4765 234.7391 14.21525039646889
GENESIS 1               
1 29252U 06029A   15355.47318529  .00004702  00000-0  25285-3 0  9993
2 29252  64.5073 259.6836 0045396 246.6882 166.7027 15.15286497519405
FALCONSAT-3             
1 30776U 07006E   15354.22021248  .00010380  00000-0  38220-3 0  9995
2 30776  35.4256 272.7311 0001143 249.4118 110.6482 15.27118108484733
GENESIS 2               
1 31789U 07028A   15355.37505436  .00006106  00000-0  32994-3 0  9990
2 31789  64.5068 296.0446 0050465 289.4217  70.1454 15.14550055466494
APRIZESAT 4             
1 35684U 09041D   15355.42167591  .00000708  00000-0  10198-3 0  9991
2 35684  98.0830 282.7181 0048649  50.4036  66.6789 14.78760643344766
APRIZESAT 3             
1 35686U 09041F   15354.88152985  .00001001  00000-0  11427-3 0  9996
2 35686  98.2233 322.1919 0073469 343.6281  16.2561 14.86672140346306
PROBA-2                 
1 36037U 09059B   15355.52379966  .00000243  00000-0  69796-4 0  9998
2 36037  98.2664 186.0458 0012707 205.7589 154.2976 14.52909222325180
APRIZESAT 5             
1 37792U 11044E   15355.32713255  .00000647  00000-0  10228-3 0  9998
2 37792  98.2662 113.7376 0058399 344.6502  15.2932 14.74826526233688
APRIZESAT 6             
1 37793U 11044F   15355.31307803  .00000566  00000-0  97331-4 0  9997
2 37793  98.2345 104.4163 0047302   2.6054  55.4125 14.71941444233250
TET-1                   
1 38710U 12039D   15354.82808955  .00012571  00000-0  32445-3 0  9994
2 38710  97.4880 283.3341 0003196  52.4458 307.7077 15.39292816190320
STSAT-2C                
1 39068U 13003A   15355.21585427  .00062032  36581-7  81120-3 0  9994
2 39068  80.2363  72.3501 0502895   8.8544 352.1121 14.78557945151115
CUSAT 1                 
1 39266U 13055B   15355.11090709  .00016080  00000-0  47582-3 0  9990
2 39266  80.9899 212.9753 0695591  12.0669 349.6238 14.21122191114475
STPSAT-3                
1 39380U 13064A   15355.37753756  .00013417  00000-0  44690-3 0  9991
2 39380  40.5022 111.4849 0003793 109.5607 250.5614 15.30803806116304
APRIZESAT 7             
1 39416U 13066A   15355.14729804  .00000686  00000-0  88943-4 0  9999
2 39416  97.7129  55.3903 0040368 237.5177 122.2132 14.83409776112565
APRIZESAT 8             
1 39425U 13066K   15355.13849840  .00000568  00000-0  79107-4 0  9992
2 39425  97.7082  52.0997 0051017 243.8865 115.7093 14.80696484112381
BUGSAT-1 (TITA)         
1 40014U 14033E   15355.55695980  .00002782  00000-0  26456-3 0  9991
2 40014  97.9560 262.2841 0031954 329.9195  30.0211 14.93943470 82014
SAUDISAT 4              
1 40016U 14033G   15355.53665519  .00000462  00000-0  75341-4 0  9997
2 40016  97.9259 245.3471 0047395 237.2431 122.4206 14.74925779 81012
TABLETSAT-AURORA        
1 40017U 14033H   15355.46292522  .00001718  00000-0  17491-3 0  9996
2 40017  97.9509 260.1670 0023402 327.4345  32.5433 14.91914769 81880
APRIZESAT 9             
1 40018U 14033J   15355.53118896  .00000418  00000-0  76189-4 0  9992
2 40018  97.9168 240.4955 0070483 246.6493 112.7287 14.69629215 80629
APRIZESAT 10            
1 40019U 14033K   15355.52069258  .00000416  00000-0  79821-4 0  9993
2 40019  97.9123 237.8608 0083284 252.9232 106.2838 14.66716325 80514
AISAT                   
1 40054U 14034B   15355.30032865  .00003157  00000-0  46471-3 0  9992
2 40054  98.2055  75.9243 0012785 352.4389   7.6625 14.76083605 79452
CANX-4                  
1 40055U 14034C   15355.46629663  .00000726  00000-0  11763-3 0  9993
2 40055  98.2067  75.5446 0014321   2.4404 357.6871 14.74297118 79427
CANX-5                  
1 40056U 14034D   15355.46640133  .00000737  00000-0  11927-3 0  9993
2 40056  98.2067  75.5439 0014356   2.7601 357.3684 14.74297118 79429
TDS 1                   
1 40076U 14037H   15355.51701382  .00001013  00000-0  13784-3 0  9999
2 40076  98.3347  74.6130 0006283  31.9151 328.2448 14.81086827 78543
TIANTUO 2               
1 40144U 14053B   15355.51457958  .00004648  00000-0  15613-3 0  9990
2 40144  97.3693  71.1515 0013654  55.4182  69.4168 15.31257497 71732
